IRIDIUM 166             
1 43570U 18061B   24041.56086449  .00000310  00000+0  10357-3 0  9990
2 43570  86.3927  55.1450 0001927  98.3038 261.8377 14.34217955290473
IRIDIUM 158             
1 43571U 18061C   24041.52914869  .00000044  00000+0  87225-5 0  9997
2 43571  86.3926  55.1674 0002252  96.5675 263.5778 14.34217011290433
IRIDIUM 165             
1 43572U 18061D   24041.55451961  .00000051  00000+0  11043-4 0  9992
2 43572  86.3930  55.1869 0002288  98.6791 261.4664 14.34217254290469
IRIDIUM 155             
1 43573U 18061E   24041.58622934  .00000232  00000+0  75604-4 0  9990
2 43573  86.3924  55.0848 0001975  87.6656 272.4766 14.34218809290449
IRIDIUM 154             
1 43574U 18061F   24041.56720421  .00000078  00000+0  20812-4 0  9998
2 43574  86.3929  55.1843 0002404  88.1384 272.0088 14.34217922290485
IRIDIUM 163             
1 43575U 18061G   24041.54818188  .00000310  00000+0  10367-3 0  9997
2 43575  86.3926  55.1345 0002269  88.7578 271.3878 14.34218355290457
IRIDIUM 156             
1 43576U 18061H   24041.52279552 -.00000156  00000+0 -62861-4 0  9999
2 43576  86.3923  55.1513 0002004  96.3900 263.7524 14.34214251290446
IRIDIUM 164             
1 43577U 18061J   24041.57354586  .00000018  00000+0 -51962-6 0  9994
2 43577  86.3926  55.1568 0002351  95.5416 264.6048 14.34217044290497
